[{"OBJECT_NAME":"OBJECT J","OBJECT_ID":"2023-085J","EPOCH":"2026-03-09T22:47:59.920512","MEAN_MOTION":15.31507187,"ECCENTRICITY":0.00067028,"INCLINATION":97.4828,"RA_OF_ASC_NODE":180.1819,"ARG_OF_PERICENTER":41.7877,"MEAN_ANOMALY":318.3875,"EPHEMERIS_TYPE":0,"CLASSIFICATION_TYPE":"U","NORAD_CAT_ID":57012,"ELEMENT_SET_NO":999,"REV_AT_EPOCH":15156,"BSTAR":0.00064525349,"MEAN_MOTION_DOT":0.00019595,"MEAN_MOTION_DDOT":0},{"OBJECT_NAME":"STARLINK-34893","OBJECT_ID":"2025-216U","EPOCH":"2026-03-09T21:33:06.139008","MEAN_MOTION":15.30220234,"ECCENTRICITY":0.00023667,"INCLINATION":53.1586,"RA_OF_ASC_NODE":332.0562,"ARG_OF_PERICENTER":140.6377,"MEAN_ANOMALY":219.4796,"EPHEMERIS_TYPE":0,"CLASSIFICATION_TYPE":"U","NORAD_CAT_ID":65752,"ELEMENT_SET_NO":999,"REV_AT_EPOCH":2654,"BSTAR":0.0012910107,"MEAN_MOTION_DOT":0.00038098,"MEAN_MOTION_DDOT":0}]
